[
{"id":35,"noradId":68573,"name":"KUIPER-00131","tle1":"1 68573U 26072A   26099.50425844  .00019009  00000+0  52551-3 0  9993","tle2":"2 68573  51.8689 149.0990 0006957 121.8629 238.3035 15.37035521   811","tleEpoch":null,"intlDesignator":"2026-072A","objectType":"PAY","opsStatusCode":"+","owner":"US","launchDate":"2026-04-04T00:00:00.000+00:00","launchSiteCode":"AFETR","decayDate":null,"period":93.6899999999999978,"inclination":51.86999999999999745,"apogee":460.0,"perigee":450.0,"radarCrossSection":null,"satcatUpdatedAt":"2026-04-10T21:25:56.740+00:00","spxId":null,"spxVersion":null,"launchId":"8a9f7ce9-4ab5-4227-95f1-9f328def8828","agencyId":null,"updatedAt":"2026-04-10T21:25:56.740+00:00"},
{"id":36,"noradId":68574,"name":"KUIPER-00189","tle1":"1 68574U 26072B   26099.56397072  .00022455  00000+0  58889-3 0  9990","tle2":"2 68574  51.8751 148.7401 0001311  67.1995 292.9131 15.38574479   827","tleEpoch":null,"intlDesignator":"2026-072B","objectType":"PAY","opsStatusCode":"+","owner":"US","launchDate":"2026-04-04T00:00:00.000+00:00","launchSiteCode":"AFETR","decayDate":null,"period":93.5900000000000034,"inclination":51.88000000000000255,"apogee":451.0,"perigee":449.0,"radarCrossSection":null,"satcatUpdatedAt":"2026-04-10T21:25:56.741+00:00","spxId":null,"spxVersion":null,"launchId":"8a9f7ce9-4ab5-4227-95f1-9f328def8828","agencyId":null,"updatedAt":"2026-04-10T21:25:56.741+00:00"},
{"id":37,"noradId":68575,"name":"KUIPER-00192","tle1":"1 68575U 26072C   26099.50267281  .00020456  00000+0  55633-3 0  9996","tle2":"2 68575  51.8740 149.0824 0005239 113.2812 246.8727 15.37501946   819","tleEpoch":null,"intlDesignator":"2026-072C","objectType":"PAY","opsStatusCode":"+","owner":"US","launchDate":"2026-04-04T00:00:00.000+00:00","launchSiteCode":"AFETR","decayDate":null,"period":93.6599999999999966,"inclination":51.86999999999999745,"apogee":457.0,"perigee":450.0,"radarCrossSection":null,"satcatUpdatedAt":"2026-04-10T21:25:56.742+00:00","spxId":null,"spxVersion":null,"launchId":"8a9f7ce9-4ab5-4227-95f1-9f328def8828","agencyId":null,"updatedAt":"2026-04-10T21:25:56.742+00:00"},
{"id":38,"noradId":68576,"name":"KUIPER-00193","tle1":"1 68576U 26072D   26099.50151636  .00017529  00000+0  47799-3 0  9994","tle2":"2 68576  51.8743 149.0740 0003479 101.4980 258.6397 15.37534610   817","tleEpoch":null,"intlDesignator":"2026-072D","objectType":"PAY","opsStatusCode":"+","owner":"US","launchDate":"2026-04-04T00:00:00.000+00:00","launchSiteCode":"AFETR","decayDate":null,"period":93.6599999999999966,"inclination":51.86999999999999745,"apogee":456.0,"perigee":451.0,"radarCrossSection":null,"satcatUpdatedAt":"2026-04-10T21:25:56.743+00:00","spxId":null,"spxVersion":null,"launchId":"8a9f7ce9-4ab5-4227-95f1-9f328def8828","agencyId":null,"updatedAt":"2026-04-10T21:25:56.743+00:00"},
{"id":39,"noradId":68577,"name":"KUIPER-00194","tle1":"1 68577U 26072E   26099.50063774  .00023394  00000+0  62246-3 0  9991","tle2":"2 68577  51.8755 149.0649 0003051  96.9450 263.1885 15.38100792   819","tleEpoch":null,"intlDesignator":"2026-072E","objectType":"PAY","opsStatusCode":"+","owner":"US","launchDate":"2026-04-04T00:00:00.000+00:00","launchSiteCode":"AFETR","decayDate":null,"period":93.6200000000000045,"inclination":51.88000000000000255,"apogee":454.0,"perigee":450.0,"radarCrossSection":null,"satcatUpdatedAt":"2026-04-10T21:25:56.743+00:00","spxId":null,"spxVersion":null,"launchId":"8a9f7ce9-4ab5-4227-95f1-9f328def8828","agencyId":null,"updatedAt":"2026-04-10T21:25:56.743+00:00"},
{"id":40,"noradId":68578,"name":"KUIPER-00229","tle1":"1 68578U 26072F   26099.50458986  .00008131  00000+0  23228-3 0  9994","tle2":"2 68578  51.8698 149.1008 0007750 119.7287 240.4471 15.36887847   818","tleEpoch":null,"intlDesignator":"2026-072F","objectType":"PAY","opsStatusCode":"+","owner":"US","launchDate":"2026-04-04T00:00:00.000+00:00","launchSiteCode":"AFETR","decayDate":null,"period":93.7000000000000028,"inclination":51.86999999999999745,"apogee":461.0,"perigee":450.0,"radarCrossSection":null,"satcatUpdatedAt":"2026-04-10T21:25:56.744+00:00","spxId":null,"spxVersion":null,"launchId":"8a9f7ce9-4ab5-4227-95f1-9f328def8828","agencyId":null,"updatedAt":"2026-04-10T21:25:56.744+00:00"},
{"id":41,"noradId":68579,"name":"KUIPER-00230","tle1":"1 68579U 26072G   26099.43425812  .00021452  00000+0  56340-3 0  9991","tle2":"2 68579  51.8754 149.3662 0001763  91.2354 268.8835 15.38558398   802","tleEpoch":null,"intlDesignator":"2026-072G","objectType":"PAY","opsStatusCode":"+","owner":"US","launchDate":"2026-04-04T00:00:00.000+00:00","launchSiteCode":"AFETR","decayDate":null,"period":93.5900000000000034,"inclination":51.88000000000000255,"apogee":452.0,"perigee":449.0,"radarCrossSection":null,"satcatUpdatedAt":"2026-04-10T21:25:56.745+00:00","spxId":null,"spxVersion":null,"launchId":"8a9f7ce9-4ab5-4227-95f1-9f328def8828","agencyId":null,"updatedAt":"2026-04-10T21:25:56.745+00:00"},
{"id":42,"noradId":68580,"name":"KUIPER-00231","tle1":"1 68580U 26072H   26099.50085480  .00018378  00000+0  49329-3 0  9996","tle2":"2 68580  51.8735 149.0710 0002972 106.5140 253.6174 15.37990269   815","tleEpoch":null,"intlDesignator":"2026-072H","objectType":"PAY","opsStatusCode":"+","owner":"US","launchDate":"2026-04-04T00:00:00.000+00:00","launchSiteCode":"AFETR","decayDate":null,"period":93.6299999999999955,"inclination":51.86999999999999745,"apogee":454.0,"perigee":450.0,"radarCrossSection":null,"satcatUpdatedAt":"2026-04-10T21:25:56.746+00:00","spxId":null,"spxVersion":null,"launchId":"8a9f7ce9-4ab5-4227-95f1-9f328def8828","agencyId":null,"updatedAt":"2026-04-10T21:25:56.746+00:00"},
{"id":43,"noradId":68581,"name":"KUIPER-00234","tle1":"1 68581U 26072J   26099.50001904  .00019781  00000+0  52514-3 0  9995","tle2":"2 68581  51.8748 149.0639 0002315  89.0364 271.0888 15.38279753   819","tleEpoch":null,"intlDesignator":"2026-072J","objectType":"PAY","opsStatusCode":"+","owner":"US","launchDate":"2026-04-04T00:00:00.000+00:00","launchSiteCode":"AFETR","decayDate":null,"period":93.6099999999999995,"inclination":51.86999999999999745,"apogee":453.0,"perigee":450.0,"radarCrossSection":null,"satcatUpdatedAt":"2026-04-10T21:25:56.747+00:00","spxId":null,"spxVersion":null,"launchId":"8a9f7ce9-4ab5-4227-95f1-9f328def8828","agencyId":null,"updatedAt":"2026-04-10T21:25:56.747+00:00"},
{"id":44,"noradId":68582,"name":"KUIPER-00236","tle1":"1 68582U 26072K   26099.50004620  .00020276  00000+0  53960-3 0  9991","tle2":"2 68582  51.8751 149.0621 0002799  92.9673 267.1635 15.38186598   817","tleEpoch":null,"intlDesignator":"2026-072K","objectType":"PAY","opsStatusCode":"+","owner":"US","launchDate":"2026-04-04T00:00:00.000+00:00","launchSiteCode":"AFETR","decayDate":null,"period":93.6200000000000045,"inclination":51.88000000000000255,"apogee":453.0,"perigee":450.0,"radarCrossSection":null,"satcatUpdatedAt":"2026-04-10T21:25:56.747+00:00","spxId":null,"spxVersion":null,"launchId":"8a9f7ce9-4ab5-4227-95f1-9f328def8828","agencyId":null,"updatedAt":"2026-04-10T21:25:56.747+00:00"},
{"id":45,"noradId":68583,"name":"KUIPER-00244","tle1":"1 68583U 26072L   26099.50157134  .00018891  00000+0  50980-3 0  9990","tle2":"2 68583  51.8746 149.0725 0004063 111.4311 248.7110 15.37801038   814","tleEpoch":null,"intlDesignator":"2026-072L","objectType":"PAY","opsStatusCode":"+","owner":"US","launchDate":"2026-04-04T00:00:00.000+00:00","launchSiteCode":"AFETR","decayDate":null,"period":93.6400000000000005,"inclination":51.86999999999999745,"apogee":455.0,"perigee":450.0,"radarCrossSection":null,"satcatUpdatedAt":"2026-04-10T21:25:56.748+00:00","spxId":null,"spxVersion":null,"launchId":"8a9f7ce9-4ab5-4227-95f1-9f328def8828","agencyId":null,"updatedAt":"2026-04-10T21:25:56.748+00:00"},
{"id":46,"noradId":68584,"name":"KUIPER-00253","tle1":"1 68584U 26072M   26099.50300503  .00019703  00000+0  53839-3 0  9990","tle2":"2 68584  51.8708 149.0898 0005796 119.9832 240.1731 15.37378144   811","tleEpoch":null,"intlDesignator":"2026-072M","objectType":"PAY","opsStatusCode":"+","owner":"US","launchDate":"2026-04-04T00:00:00.000+00:00","launchSiteCode":"AFETR","decayDate":null,"period":93.6700000000000017,"inclination":51.86999999999999745,"apogee":458.0,"perigee":450.0,"radarCrossSection":null,"satcatUpdatedAt":"2026-04-10T21:25:56.749+00:00","spxId":null,"spxVersion":null,"launchId":"8a9f7ce9-4ab5-4227-95f1-9f328def8828","agencyId":null,"updatedAt":"2026-04-10T21:25:56.749+00:00"},
{"id":47,"noradId":68585,"name":"KUIPER-00254","tle1":"1 68585U 26072N   26099.50487879  .00015690  00000+0  43827-3 0  9990","tle2":"2 68585  51.8713 149.1007 0007632 125.1432 235.0271 15.36854703   818","tleEpoch":null,"intlDesignator":"2026-072N","objectType":"PAY","opsStatusCode":"+","owner":"US","launchDate":"2026-04-04T00:00:00.000+00:00","launchSiteCode":"AFETR","decayDate":null,"period":93.7000000000000028,"inclination":51.86999999999999745,"apogee":461.0,"perigee":450.0,"radarCrossSection":null,"satcatUpdatedAt":"2026-04-10T21:25:56.749+00:00","spxId":null,"spxVersion":null,"launchId":"8a9f7ce9-4ab5-4227-95f1-9f328def8828","agencyId":null,"updatedAt":"2026-04-10T21:25:56.749+00:00"},
{"id":48,"noradId":68586,"name":"KUIPER-00263","tle1":"1 68586U 26072P   26099.49931870  .00018377  00000+0  48541-3 0  9997","tle2":"2 68586  51.8756 149.0548 0002067  62.5917 297.5280 15.38487416   812","tleEpoch":null,"intlDesignator":"2026-072P","objectType":"PAY","opsStatusCode":"+","owner":"US","launchDate":"2026-04-04T00:00:00.000+00:00","launchSiteCode":"AFETR","decayDate":null,"period":93.5999999999999944,"inclination":51.88000000000000255,"apogee":452.0,"perigee":449.0,"radarCrossSection":null,"satcatUpdatedAt":"2026-04-10T21:25:56.750+00:00","spxId":null,"spxVersion":null,"launchId":"8a9f7ce9-4ab5-4227-95f1-9f328def8828","agencyId":null,"updatedAt":"2026-04-10T21:25:56.750+00:00"},
{"id":49,"noradId":68587,"name":"KUIPER-00269","tle1":"1 68587U 26072Q   26099.50209349  .00000642  00000+0  27693-4 0  9991","tle2":"2 68587  51.8732 149.0800 0004719 103.3397 256.8116 15.37536743   813","tleEpoch":null,"intlDesignator":"2026-072Q","objectType":"PAY","opsStatusCode":"+","owner":"US","launchDate":"2026-04-04T00:00:00.000+00:00","launchSiteCode":"AFETR","decayDate":null,"period":93.6599999999999966,"inclination":51.86999999999999745,"apogee":457.0,"perigee":450.0,"radarCrossSection":null,"satcatUpdatedAt":"2026-04-10T21:25:56.751+00:00","spxId":null,"spxVersion":null,"launchId":"8a9f7ce9-4ab5-4227-95f1-9f328def8828","agencyId":null,"updatedAt":"2026-04-10T21:25:56.751+00:00"},
{"id":50,"noradId":68588,"name":"KUIPER-00272","tle1":"1 68588U 26072R   26099.50324224  .00023089  00000+0  63054-3 0  9992","tle2":"2 68588  51.8717 149.0902 0006012 116.9423 243.2179 15.37292994   814","tleEpoch":null,"intlDesignator":"2026-072R","objectType":"PAY","opsStatusCode":"+","owner":"US","launchDate":"2026-04-04T00:00:00.000+00:00","launchSiteCode":"AFETR","decayDate":null,"period":93.6700000000000017,"inclination":51.86999999999999745,"apogee":458.0,"perigee":450.0,"radarCrossSection":null,"satcatUpdatedAt":"2026-04-10T21:25:56.751+00:00","spxId":null,"spxVersion":null,"launchId":"8a9f7ce9-4ab5-4227-95f1-9f328def8828","agencyId":null,"updatedAt":"2026-04-10T21:25:56.751+00:00"},
{"id":65,"noradId":68572,"name":"FREGAT R/B","tle1":"1 68572U 26071B   26093.32132148 -.00001541  00000+0  35052-3 0  9997","tle2":"2 68572  63.0589 237.9448 7313819 284.9724  10.3188  2.01041412    13","tleEpoch":null,"intlDesignator":"2026-071B","objectType":"R/B","opsStatusCode":null,"owner":"CIS","launchDate":"2026-04-03T00:00:00.000+00:00","launchSiteCode":"PLMSC","decayDate":null,"period":718.4400000000000546,"inclination":62.81000000000000227,"apogee":39536.0,"perigee":851.0,"radarCrossSection":null,"satcatUpdatedAt":"2026-04-10T21:25:56.739+00:00","spxId":null,"spxVersion":null,"launchId":"bc0cca05-0fb5-43ca-b648-a852d20ceaf3","agencyId":null,"updatedAt":"2026-04-10T21:25:56.739+00:00"}]
